[{"OBJECT_NAME":"STARLINK-2135","OBJECT_ID":"2021-005BM","EPOCH":"2026-03-09T06:41:25.174176","MEAN_MOTION":15.06388595,"ECCENTRICITY":0.00014279,"INCLINATION":53.0558,"RA_OF_ASC_NODE":33.4642,"ARG_OF_PERICENTER":97.2459,"MEAN_ANOMALY":262.8693,"EPHEMERIS_TYPE":0,"CLASSIFICATION_TYPE":"U","NORAD_CAT_ID":47408,"ELEMENT_SET_NO":999,"REV_AT_EPOCH":28340,"BSTAR":6.4833365e-5,"MEAN_MOTION_DOT":6.84e-6,"MEAN_MOTION_DDOT":0},{"OBJECT_NAME":"TITAN 4B DEB","OBJECT_ID":"2000-047E","EPOCH":"2026-03-09T14:16:43.154688","MEAN_MOTION":14.95842861,"ECCENTRICITY":0.0051888,"INCLINATION":67.9936,"RA_OF_ASC_NODE":132.6415,"ARG_OF_PERICENTER":76.3882,"MEAN_ANOMALY":356.6211,"EPHEMERIS_TYPE":0,"CLASSIFICATION_TYPE":"U","NORAD_CAT_ID":40528,"ELEMENT_SET_NO":999,"REV_AT_EPOCH":59773,"BSTAR":6.4855e-5,"MEAN_MOTION_DOT":6.21e-6,"MEAN_MOTION_DDOT":0}]
